OBJECT_NAME,OBJECT_ID,EPOCH,MEAN_MOTION,ECCENTRICITY,INCLINATION,RA_OF_ASC_NODE,ARG_OF_PERICENTER,MEAN_ANOMALY,EPHEMERIS_TYPE,CLASSIFICATION_TYPE,NORAD_CAT_ID,ELEMENT_SET_NO,REV_AT_EPOCH,BSTAR,MEAN_MOTION_DOT,MEAN_MOTION_DDOT
SIRION PATHFINDER-2,2018-099B,2026-06-09T09:15:10.275840,15.14480438,.0007772,97.4257,209.6286,336.7135,23.3744,0,U,43759,999,41144,.20742E-3,.3754E-4,0
CORVUS BC4,2018-099K,2026-06-09T09:09:24.891840,15.12433449,.0009101,97.4073,203.5906,38.7659,321.4224,0,U,43767,999,41122,.21847E-3,.3736E-4,0
M2 PATHFINDER,2020-037E,2026-06-09T11:10:34.006368,15.04644400,.0011758,97.8161,351.6108,171.8469,188.2950,0,U,45727,999,32433,.17036E-3,.2333E-4,0
NETSAT-4,2020-068U,2026-06-09T11:25:35.332896,15.43608355,.0004854,97.8610,168.0984,10.1265,350.0078,0,U,46504,999,31458,.36594E-3,.16384E-3,0
NETSAT-3,2020-068V,2026-06-09T11:26:03.296256,15.42410894,.0005296,97.8659,166.3250,28.5044,331.6490,0,U,46505,999,31449,.38131E-3,.16404E-3,0
NETSAT-1,2020-068W,2026-06-09T10:35:00.826656,15.34458982,.0005936,97.8747,160.7089,54.3236,305.8557,0,U,46506,999,31411,.34762E-3,.11525E-3,0
NETSAT-2,2020-068X,2026-06-09T00:12:32.404896,15.45645345,.00045667,97.8623,167.4592,48.2139,311.9499,0,U,46507,999,31447,.40370978E-3,.19387E-3,0
GREENCUBE (IO-117),2022-080E,2026-06-01T11:09:37.753056,6.42583280,.00088692,70.1435,303.7143,293.3663,66.6064,0,U,53109,999,9105,0,-.3E-7,0
SITRO-AIS 5 (KATYS),2023-091L,2026-06-09T11:31:36.350112,15.29277023,.0012728,97.5064,224.3072,127.2913,232.9489,0,U,57176,999,16316,.38836E-3,.10984E-3,0
SITRO-AIS 6 (CHIRKIN),2023-091AC,2026-06-09T12:10:14.147616,15.25787932,.0012994,97.5073,223.4940,130.1824,230.0554,0,U,57192,999,16311,.37105E-3,.9431E-4,0
SITRO-AIS 8 (ANOKHIN),2023-091AD,2026-06-09T12:15:24.331392,15.31922554,.0011846,97.5061,225.8955,123.3287,236.9091,0,U,57193,999,16327,.4219E-3,.12959E-3,0
SITRO-AIS 7 (FARTUSHNIY),2023-091AE,2026-06-09T12:12:31.165056,15.25478306,.0012811,97.5070,223.3244,131.0270,229.2077,0,U,57194,999,16310,.36125E-3,.9094E-4,0
SITRO-AIS 10 (BURDAEV),2023-091AK,2026-06-09T12:13:23.291040,15.38316401,.0007892,97.5083,230.8696,102.8746,257.3381,0,U,57199,999,16358,.47882E-3,.18037E-3,0
SITRO-AIS 9 (SHCHUKIN),2023-091AM,2026-06-09T11:14:13.444224,15.37835620,.0008133,97.5081,230.5636,102.9632,257.2521,0,U,57201,999,16356,.47834E-3,.1774E-3,0
SITRO-AIS 12 (SMIRENNIY),2023-091AQ,2026-06-09T12:36:29.795904,15.38127778,.0007723,97.5094,231.0842,97.8271,262.3850,0,U,57204,999,16359,.4613E-3,.17265E-3,0
SITRO-AIS 11 (SHEFFER),2023-091AU,2026-06-09T11:25:11.453664,15.38544533,.0007627,97.5093,231.2753,97.9787,262.2324,0,U,57208,999,16360,.49364E-3,.18737E-3,0
SITRO-AIS 25,2024-039R,2026-06-09T12:53:37.322592,14.93473483,.014444,95.3912,229.8356,355.6933,4.3038,0,U,59066,999,12358,.24694E-3,.3154E-4,0
SITRO-AIS 26,2024-039S,2026-06-09T12:54:05.929632,14.93270252,.0144789,95.3913,229.7351,356.2679,3.7453,0,U,59067,999,12357,.24234E-3,.3081E-4,0
SITRO-AIS 27,2024-039T,2026-06-09T12:14:19.945248,14.93686770,.0143871,95.3913,229.9844,354.9500,5.0265,0,U,59068,999,12359,.19991E-3,.2557E-4,0
SITRO-AIS 28,2024-039U,2026-06-09T11:42:05.947776,14.93722692,.0143731,95.3917,230.0158,354.9296,5.0464,0,U,59071,999,12359,.20258E-3,.2594E-4,0
GRBBETA,2024-128C,2026-06-09T12:30:32.213952,15.06588239,.0041674,61.9898,243.1615,133.0330,227.4266,0,U,60237,999,10511,.2308E-3,.3281E-4,0
OOV-CUBE (TUBSAT-30),2024-128F,2026-06-09T12:52:32.983104,15.02741636,.0045584,61.9950,252.2499,132.0465,228.4520,0,U,60240,999,10496,.17279E-3,.2156E-4,0
ROBUSTA-3A (MEDITERRANEE),2024-128J,2026-06-09T12:39:55.814112,15.11585372,.0042181,61.9859,235.3282,126.5118,233.9874,0,U,60243,999,10526,.37064E-3,.6234E-4,0
LASARSAT,2024-247Q,2026-06-09T10:00:33.992640,15.45882865,.0008377,44.9749,305.8624,288.2442,71.7536,0,U,62391,999,8211,.63095E-3,.31151E-3,0
CROCUBE,2024-247T,2026-06-09T08:37:57.069120,15.47699644,.000821,44.9723,303.6436,291.5669,68.4347,0,U,62394,999,8213,.66382E-3,.34955E-3,0
FORESAIL-1 PRIME,2025-276DS,2026-06-08T04:01:00.773184,15.18619338,.0003714,97.4199,232.6039,122.1307,238.0288,0,U,66778,999,2903,.21751E-3,.4435E-4,0
KNACKSAT-2,1998-067XZ,2026-06-09T05:06:42.455232,15.59248117,.0010139,51.6310,334.5675,180.3402,179.7586,0,U,67683,999,1903,.55732E-3,.44471E-3,0
